NORAD_CAT_ID,OBJECT_NAME,OBJECT_TYPE,EPOCH,MEAN_MOTION,ECCENTRICITY,INCLINATION,RA_OF_ASC_NODE,ARG_OF_PERICENTER,MEAN_ANOMALY,BSTAR,MEAN_MOTION_DOT,MEAN_MOTION_DDOT,TLE_LINE0,TLE_LINE1,TLE_LINE2,SEMIMAJOR_AXIS,PERIOD,APOGEE,PERIGEE,DECAYED
54104.0,STARLINK-5203,PAYLOAD,2023-10-10 09:52:51,15.08852893,0.0001802,53.2173,295.2073,96.1392,263.9806,1.9757e-05,2.6e-07,0.0,0 STARLINK-5203,1 54104U 22136BF  23283.41171115  .00000026  00000-0  19757-4 0  9998,2 54104  53.2173 295.2073 0001802  96.1392 263.9806 15.08852893 54435,6917.841,95.437,540.953,538.459,0.0
54104.0,STARLINK-5203,PAYLOAD,2023-10-10 17:49:47,15.08840696,0.0001381,53.2172,293.7189,98.7837,261.3312,-9.0354e-05,-1.726e-05,0.0,0 STARLINK-5203,1 54104U 22136BF  23283.74291492 -.00001726  00000-0 -90354-4 0  9997,2 54104  53.2172 293.7189 0001381  98.7837 261.3312 15.08840696 54958,6917.878,95.438,540.699,538.788,0.0
54104.0,STARLINK-5203,PAYLOAD,2023-10-11 01:46:44,15.08832664,0.0001702,53.2169,292.2314,94.7463,265.3723,-9.8465e-05,-1.854e-05,0.0,0 STARLINK-5203,1 54104U 22136BF  23284.07412106 -.00001854  00000-0 -98465-4 0  9994,2 54104  53.2169 292.2314 0001702  94.7463 265.3723 15.08832664 55009,6917.903,95.438,540.945,538.59,0.0
54104.0,STARLINK-5203,PAYLOAD,2023-10-11 08:08:16,15.08838503,0.0001722,53.2166,291.0416,91.5033,268.6156,-4.2926e-05,-9.71e-06,0.0,0 STARLINK-5203,1 54104U 22136BF  23284.33907942 -.00000971  00000-0 -42926-4 0  9990,2 54104  53.2166 291.0416 0001722  91.5033 268.6156 15.08838503 54571,6917.885,95.438,540.941,538.559,0.0
54104.0,STARLINK-5203,PAYLOAD,2023-10-11 17:40:35,15.08841593,0.000176,53.2167,289.2569,87.0349,273.0844,-4.8363e-05,-1.058e-05,0.0,0 STARLINK-5203,1 54104U 22136BF  23284.73651862 -.00001058  00000-0 -48363-4 0  9999,2 54104  53.2167 289.2569 0001760  87.0349 273.0844 15.08841593 55109,6917.876,95.437,540.958,538.523,0.0
54104.0,STARLINK-5203,PAYLOAD,2023-10-12 07:59:03,15.08840584,0.0001618,53.2152,286.5813,90.56,269.5577,9.194e-05,1.176e-05,0.0,0 STARLINK-5203,1 54104U 22136BF  23285.33268110  .00001176  00000-0  91940-4 0  9994,2 54104  53.2152 286.5813 0001618  90.5600 269.5577 15.08840584 54725,6917.879,95.438,540.863,538.624,0.0
54104.0,STARLINK-5203,PAYLOAD,2023-10-13 04:39:04,15.08838958,0.0001707,53.2167,282.7148,99.6352,260.4833,0.00019198,2.769e-05,0.0,0 STARLINK-5203,1 54104U 22136BF  23286.19380436  .00002769  00000-0  19198-3 0  9998,2 54104  53.2167 282.7148 0001707  99.6352 260.4833 15.08838958 55327,6917.884,95.438,540.929,538.568,0.0
54104.0,STARLINK-5203,PAYLOAD,2023-10-13 09:25:13,15.08849678,0.0001722,53.2168,281.822,95.7156,264.4032,0.00029406,4.396e-05,0.0,0 STARLINK-5203,1 54104U 22136BF  23286.39251970  .00004396  00000-0  29406-3 0  9991,2 54104  53.2168 281.8220 0001722  95.7156 264.4032 15.08849678 55354,6917.851,95.437,540.907,538.525,0.0
54104.0,STARLINK-5203,PAYLOAD,2023-10-13 17:22:09,15.08842611,0.0001901,53.2169,280.3372,92.4794,267.6415,0.00014359,1.998e-05,0.0,0 STARLINK-5203,1 54104U 22136BF  23286.72372302  .00001998  00000-0  14359-3 0  9997,2 54104  53.2169 280.3372 0001901  92.4794 267.6415 15.08842611 55404,6917.872,95.437,541.052,538.422,0.0
54104.0,STARLINK-5203,PAYLOAD,2023-10-14 04:29:50,15.08854198,0.0001966,53.2176,278.2538,120.2412,239.8775,0.00036609,5.545e-05,0.0,0 STARLINK-5203,1 54104U 22136BF  23287.18739436  .00005545  00000-0  36609-3 0  9997,2 54104  53.2176 278.2538 0001966 120.2412 239.8775 15.08854198 55470,6917.837,95.437,541.062,538.342,0.0
54104.0,STARLINK-5203,PAYLOAD,2023-10-14 09:16:00,15.08857115,0.0001748,53.2169,277.3598,103.8923,256.2264,0.00025892,3.837e-05,0.0,0 STARLINK-5203,1 54104U 22136BF  23287.38611239  .00003837  00000-0  25892-3 0  9993,2 54104  53.2169 277.3598 0001748 103.8923 256.2264 15.08857115 55030,6917.828,95.436,540.902,538.484,0.0
54104.0,STARLINK-5203,PAYLOAD,2023-10-15 04:20:39,15.08826471,0.0001514,53.2175,273.7929,106.7463,253.3695,-0.00023647,-4.048e-05,0.0,0 STARLINK-5203,1 54104U 22136BF  23288.18100898 -.00004048  00000-0 -23647-3 0  9999,2 54104  53.2175 273.7929 0001514 106.7463 253.3695 15.08826471 55629,6917.922,95.438,540.834,538.739,0.0
54104.0,STARLINK-5203,PAYLOAD,2023-10-15 09:06:48,15.08827595,0.0001599,53.2172,272.8988,110.1243,249.9921,-0.00013861,-2.493e-05,0.0,0 STARLINK-5203,1 54104U 22136BF  23288.37973048 -.00002493  00000-0 -13861-3 0  9994,2 54104  53.2172 272.8988 0001599 110.1243 249.9921 15.08827595 55181,6917.918,95.438,540.889,538.677,0.0
54104.0,STARLINK-5203,PAYLOAD,2023-10-16 05:46:48,15.08856687,0.0001395,53.2166,269.0357,96.1227,263.9924,0.00049205,7.555e-05,0.0,0 STARLINK-5203,1 54104U 22136BF  23289.24084287  .00007555  00000-0  49205-3 0  9992,2 54104  53.2166 269.0357 0001395  96.1227 263.9924 15.08856687 55780,6917.829,95.436,540.659,538.729,0.0
54104.0,STARLINK-5203,PAYLOAD,2023-10-18 02:17:36,15.08836515,0.0001669,53.2168,260.7104,101.4864,258.6315,-0.00021518,-3.711e-05,0.0,0 STARLINK-5203,1 54104U 22136BF  23291.09556245 -.00003711  00000-0 -21518-3 0  9995,2 54104  53.2168 260.7104 0001669 101.4864 258.6315 15.08836515 55593,6917.891,95.438,540.911,538.601,0.0
54104.0,STARLINK-5203,PAYLOAD,2023-10-18 05:28:23,15.08835655,0.0001506,53.2169,260.112,88.4574,271.6591,-0.00024164,-4.131e-05,0.0,0 STARLINK-5203,1 54104U 22136BF  23291.22804542 -.00004131  00000-0 -24164-3 0  9993,2 54104  53.2169 260.1120 0001506  88.4574 271.6591 15.08835655 56088,6917.894,95.438,540.801,538.717,0.0
54104.0,STARLINK-5203,PAYLOAD,2023-10-18 15:00:41,15.0884002,0.0001395,53.2165,258.33,92.6156,267.4996,-6.9807e-05,-1.399e-05,0.0,0 STARLINK-5203,1 54104U 22136BF  23291.62548492 -.00001399  00000-0 -69807-4 0  9993,2 54104  53.2165 258.3300 0001395  92.6156 267.4996 15.08840020 55670,6917.88,95.438,540.71,538.78,0.0
54104.0,STARLINK-5203,PAYLOAD,2023-10-19 03:43:46,15.0884784,0.0001417,53.2157,255.9508,96.901,263.2143,0.0002919,4.362e-05,0.0,0 STARLINK-5203,1 54104U 22136BF  23292.15540349  .00004362  00000-0  29190-3 0  9996,2 54104  53.2157 255.9508 0001417  96.9010 263.2143 15.08847840 56222,6917.856,95.437,540.702,538.741,0.0
54104.0,STARLINK-5203,PAYLOAD,2023-10-19 06:54:33,15.08857651,0.0001538,53.2167,255.3559,93.2686,266.8482,0.00073141,0.00011377,0.0,0 STARLINK-5203,1 54104U 22136BF  23292.28788270  .00011377  00000-0  73141-3 0  9996,2 54104  53.2167 255.3559 0001538  93.2686 266.8482 15.08857651 55771,6917.826,95.436,540.755,538.627,0.0
54104.0,STARLINK-5203,PAYLOAD,2023-10-19 21:13:01,15.08849625,0.0001769,53.2161,252.6801,91.5779,268.5416,0.00054313,8.369e-05,0.0,0 STARLINK-5203,1 54104U 22136BF  23292.88404816  .00008369  00000-0  54313-3 0  9990,2 54104  53.2161 252.6801 0001769  91.5779 268.5416 15.08849625 56336,6917.851,95.437,540.94,538.492,0.0
54104.0,STARLINK-5203,PAYLOAD,2023-10-20 06:45:20,15.08854553,0.0001678,53.2165,250.8959,96.928,263.1903,0.00073723,0.00011469,0.0,0 STARLINK-5203,1 54104U 22136BF  23293.28148558  .00011469  00000-0  73723-3 0  9994,2 54104  53.2165 250.8959 0001678  96.9280 263.1903 15.08854553 55921,6917.836,95.437,540.862,538.54,0.0
54104.0,STARLINK-5203,PAYLOAD,2023-10-20 21:03:49,15.08835457,0.00011,53.2169,248.2194,101.9106,258.2009,0.00066443,0.00010301,0.0,0 STARLINK-5203,1 54104U 22136BF  23293.87765170  .00010301  00000-0  66443-3 0  9999,2 54104  53.2169 248.2194 0001100 101.9106 258.2009 15.08835457 56016,6917.894,95.438,540.52,538.998,0.0
54104.0,STARLINK-5203,PAYLOAD,2023-10-21 01:49:58,15.08842286,0.0001949,53.2172,247.3257,109.9374,250.1828,0.00068796,0.00010678,0.0,0 STARLINK-5203,1 54104U 22136BF  23294.07637211  .00010678  00000-0  68796-3 0  9996,2 54104  53.2172 247.3257 0001949 109.9374 250.1828 15.08842286 56519,6917.873,95.437,541.087,538.39,0.0
54104.0,STARLINK-5203,PAYLOAD,2023-10-21 03:25:21,15.08840027,0.0001919,53.2173,247.0288,113.9982,246.1211,0.00073631,0.0001145,0.0,0 STARLINK-5203,1 54104U 22136BF  23294.14261223  .00011450  00000-0  73631-3 0  9993,2 54104  53.2173 247.0288 0001919 113.9982 246.1211 15.08840027 56059,6917.88,95.438,541.073,538.418,0.0
54104.0,STARLINK-5203,PAYLOAD,2023-10-21 20:54:35,15.08857022,0.0001739,53.2175,243.7593,102.0208,258.0979,0.00080974,0.00012628,0.0,0 STARLINK-5203,1 54104U 22136BF  23294.87124865  .00012628  00000-0  80974-3 0  9999,2 54104  53.2175 243.7593 0001739 102.0208 258.0979 15.08857022 56161,6917.828,95.436,540.896,538.49,0.0
54104.0,STARLINK-5203,PAYLOAD,2023-10-22 03:16:07,15.08870565,0.0001677,53.2164,242.5696,110.7838,249.3333,0.0010029,0.00015723,0.0,0 STARLINK-5203,1 54104U 22136BF  23295.13620212  .00015723  00000-0  10029-2 0  9998,2 54104  53.2164 242.5696 0001677 110.7838 249.3333 15.08870565 56676,6917.787,95.436,540.812,538.492,0.0
54104.0,STARLINK-5203,PAYLOAD,2023-10-23 03:06:55,15.08827179,0.0001581,53.2173,238.1117,97.0412,263.076,-4.8084e-05,-1.053e-05,0.0,0 STARLINK-5203,1 54104U 22136BF  23296.12981431 -.00001053  00000-0 -48084-4 0  9998,2 54104  53.2173 238.1117 0001581  97.0412 263.0760 15.08827179 56821,6917.92,95.438,540.878,538.691,0.0
54104.0,STARLINK-5203,PAYLOAD,2023-10-23 12:39:15,15.08825765,0.0001468,53.2171,236.3281,94.0113,266.1047,-1.2844e-05,-4.92e-06,0.0,0 STARLINK-5203,1 54104U 22136BF  23296.52725947 -.00000492  00000-0 -12844-4 0  9991,2 54104  53.2171 236.3281 0001468  94.0113 266.1047 15.08825765 56416,6917.924,95.438,540.804,538.773,0.0
54104.0,STARLINK-5203,PAYLOAD,2023-10-24 02:57:43,15.08849375,0.0001353,53.2161,233.6496,92.3487,267.766,0.00097481,0.00015264,0.0,0 STARLINK-5203,1 54104U 22136BF  23297.12341846  .00015264  00000-0  97481-3 0  9990,2 54104  53.2161 233.6496 0001353  92.3487 267.7660 15.08849375 56973,6917.852,95.437,540.653,538.781,0.0
54104.0,STARLINK-5203,PAYLOAD,2023-10-24 12:30:02,15.08853156,0.000131,53.2159,231.865,80.7432,279.3708,0.00063107,9.773e-05,0.0,0 STARLINK-5203,1 54104U 22136BF  23297.52085654  .00009773  00000-0  63107-3 0  9992,2 54104  53.2159 231.8650 0001310  80.7432 279.3708 15.08853156 56565,6917.84,95.437,540.611,538.799,0.0
